[{"OBJECT_NAME":"STELLA","OBJECT_ID":"1993-061B","EPOCH":"2026-03-09T22:50:14.153280","MEAN_MOTION":14.2746756,"ECCENTRICITY":0.00067535,"INCLINATION":98.784,"RA_OF_ASC_NODE":132.7988,"ARG_OF_PERICENTER":156.9855,"MEAN_ANOMALY":327.7404,"EPHEMERIS_TYPE":0,"CLASSIFICATION_TYPE":"U","NORAD_CAT_ID":22824,"ELEMENT_SET_NO":999,"REV_AT_EPOCH":69061,"BSTAR":7.617075e-6,"MEAN_MOTION_DOT":-2.6e-7,"MEAN_MOTION_DDOT":0},{"OBJECT_NAME":"COSMOS 1066 DEB","OBJECT_ID":"1978-121D","EPOCH":"2026-03-07T00:37:41.299680","MEAN_MOTION":14.35861024,"ECCENTRICITY":0.00358186,"INCLINATION":81.2314,"RA_OF_ASC_NODE":329.5093,"ARG_OF_PERICENTER":323.4,"MEAN_ANOMALY":36.4737,"EPHEMERIS_TYPE":0,"CLASSIFICATION_TYPE":"U","NORAD_CAT_ID":45656,"ELEMENT_SET_NO":999,"REV_AT_EPOCH":30436,"BSTAR":0.002799593,"MEAN_MOTION_DOT":8.186e-5,"MEAN_MOTION_DDOT":0}]
